ATLAS CENTAUR 2         
1 00694U 63047A   26162.06152089  .00001241  00000+0  13735-3 0  9996
2 00694  30.3557  33.6495 0545976 183.4885 176.1805 14.12505573144838
THOR AGENA D R/B        
1 00733U 64002A   26162.29616685  .00000156  00000+0  72967-4 0  9991
2 00733  99.1155 180.7103 0032627 347.9460  12.0939 14.34063369251717
SL-3 R/B                
1 00877U 64053B   26162.10262995  .00000076  00000+0  39023-4 0  9994
2 00877  65.0775  57.3533 0081110 263.0192  96.1678 14.61424011280443
SL-8 R/B                
1 02802U 67045B   26162.27306795  .00000185  00000+0  58622-4 0  9990
2 02802  74.0093 173.3045 0063673 159.2277 201.1492 14.45679636102540
SL-8 R/B                
1 03230U 68040B   26162.19556714  .00001925  00000+0  14226-3 0  9995
2 03230  74.0296 122.5439 0025998 276.7008  83.1222 15.03786408104068
OAO 2                   
1 03597U 68110A   26162.12177520  .00000153  00000+0  46185-4 0  9998
2 03597  34.9931 103.5452 0006077 230.1236 129.8921 14.47349439 32647
ISIS 1                  
1 03669U 69009A   26162.17292526  .00000060  00000+0  44833-4 0  9990
2 03669  88.4423 145.0606 1706064 260.3817  80.1256 11.30433155359092
SERT 2                  
1 04327U 70009A   26162.06001309 -.00000017  00000+0  32807-4 0  9990
2 04327  99.2842 100.1020 0004029 292.6993  82.6951 13.58738747792575
SL-3 R/B                
1 05118U 71028B   26162.18968657  .00046570  00000+0  39765-3 0  9994
2 05118  81.2324 295.8448 0013805 302.3127  57.6792 15.69173002  3308
ASTEX 1                 
1 05560U 71089A   26162.00294950  .00000400  00000+0  10141-3 0  9990
2 05560  92.6998 181.8641 0017506 124.4128 235.8736 14.50846688875836
SL-8 R/B                
1 05730U 71119B   26162.24932456  .00003269  00000+0  16932-3 0  9999
2 05730  73.8879   0.5935 0543816 307.7593  47.5454 14.39470026668940
OAO 3 (COPERNICUS)      
1 06153U 72065A   26162.21122265  .00000238  00000+0  52999-4 0  9993
2 06153  35.0048 124.4550 0006989 210.1601 171.7625 14.60056906859874
ATLAS CENTAUR R/B       
1 06155U 72065B   26162.19783429  .00000946  00000+0  13153-3 0  9991
2 06155  35.0007 117.6538 0032807  77.4229 283.0138 14.77908650855107
SL-8 R/B                
1 08459U 75112B   26162.19794827  .00000167  00000+0  63499-4 0  9994
2 08459  74.0596 206.8921 0016850 274.5208  85.4021 14.38243282645311
SL-3 R/B                
1 10114U 77057B   26162.20471224  .00009123  00000+0  17784-3 0  9996
2 10114  97.5837 338.4571 0005625 311.7377  48.3391 15.47758657682780
SEASAT 1                
1 10967U 78064A   26162.22192906  .00000220  00000+0  99872-4 0  9998
2 10967 108.0166 321.7670 0001984 240.7099 119.3848 14.46238733520031
SL-14 R/B               
1 11267U 79011B   26162.27380239  .00000452  00000+0  41964-4 0  9994
2 11267  82.5241   7.7666 0017494 103.5630 256.7540 14.92008629542737
SL-8 R/B                
1 11574U 79089B   26162.03220795  .00000184  00000+0  63565-4 0  9997
2 11574  74.0695 278.2510 0014874  64.4942 295.7751 14.42401272449560
SL-14 R/B               
1 11672U 80005B   26162.21421033  .00000382  00000+0  36015-4 0  9994
2 11672  82.5144 218.5060 0014947 206.3105 153.7357 14.91024002490420
SL-8 R/B                
1 12139U 81003B   26162.20426168  .00013563  00000+0  33409-3 0  9993
2 12139  82.9373 203.3300 0250444 212.0986 146.4793 15.14040720328818
SL-3 R/B                
1 12465U 81046B   26162.29244120  .00009168  00000+0  19865-3 0  9993
2 12465  81.2298 177.1694 0019073  57.2440 303.0638 15.44074287452867
SL-3 R/B                
1 12904U 81103B   26162.26955617  .00003744  00000+0  16151-3 0  9991
2 12904  81.1578 103.5842 0012222 337.5911  22.4786 15.22233817987466
SL-3 R/B                
1 13068U 82013B   26162.24307082  .00003073  00000+0  12981-3 0  9991
2 13068  81.1747  51.0348 0020981 221.5623 138.4015 15.22748917418584
SL-3 R/B                
1 13154U 82039B   26162.20551658  .00002844  00000+0  16953-3 0  9999
2 13154  81.1428 107.9983 0029569  15.8293 344.3850 15.10501210395758
SL-3 R/B                
1 13403U 82079B   26162.21391234  .00003547  00000+0  13699-3 0  9998
2 13403  81.1464  82.5515 0023233 206.0110 153.9958 15.25738309391956
SL-14 R/B               
1 13553U 82092B   26162.13944942  .00000346  00000+0  36037-4 0  9996
2 13553  82.5686  53.9624 0020186 355.7619 118.3894 14.86743519342816
SL-3 R/B                
1 13819U 83010B   26162.24588125  .00012628  00000+0  23093-3 0  9994
2 13819  81.1022 247.2804 0015813  82.3677 277.9365 15.49082512372419
SL-3 R/B                
1 14208U 83075B   26162.22272807  .00008047  00000+0  20020-3 0  9990
2 14208  97.6104 170.4836 0018910 252.2181 107.7002 15.40384073344545
COSMOS 1536             
1 14699U 84013A   26161.99457790  .00005384  00000+0  21414-3 0  9995
2 14699  82.5453  15.0135 0013030 319.5869  40.4400 15.24988666286835
SL-14 R/B               
1 14820U 84027B   26162.08758562  .00000383  00000+0  40856-4 0  9994
2 14820  82.5408 157.4372 0018695  28.8159 331.4086 14.86055108261502
