OBJECT_NAME,OBJECT_ID,EPOCH,MEAN_MOTION,ECCENTRICITY,INCLINATION,RA_OF_ASC_NODE,ARG_OF_PERICENTER,MEAN_ANOMALY,EPHEMERIS_TYPE,CLASSIFICATION_TYPE,NORAD_CAT_ID,ELEMENT_SET_NO,REV_AT_EPOCH,BSTAR,MEAN_MOTION_DOT,MEAN_MOTION_DDOT
ATLAS CENTAUR 2,1963-047A,2026-06-11T01:28:35.404896,14.12505573,.05459764,30.3557,33.6495,183.4885,176.1805,0,U,694,999,14483,.13735365E-3,.1241E-4,0
THOR AGENA D R/B,1964-002A,2026-06-11T07:06:28.815840,14.34063369,.00326271,99.1155,180.7103,347.9460,12.0939,0,U,733,999,25171,.72966596E-4,.156E-5,0
SL-3 R/B,1964-053B,2026-06-11T02:27:47.227680,14.61424011,.00811102,65.0775,57.3533,263.0192,96.1678,0,U,877,999,28044,.39023181E-4,.76E-6,0
SL-8 R/B,1967-045B,2026-06-11T06:33:13.070880,14.45679636,.0063673,74.0093,173.3045,159.2277,201.1492,0,U,2802,999,10254,.58621995E-4,.185E-5,0
SL-8 R/B,1968-040B,2026-06-11T04:41:37.000896,15.03786408,.00259988,74.0296,122.5439,276.7008,83.1222,0,U,3230,999,10406,.14225846E-3,.1925E-4,0
OAO 2,1968-110A,2026-06-11T02:55:21.377280,14.47349439,.00060777,34.9931,103.5452,230.1236,129.8921,0,U,3597,999,3264,.46184823E-4,.153E-5,0
ISIS 1,1969-009A,2026-06-11T04:09:00.742464,11.30433155,.17060649,88.4423,145.0606,260.3817,80.1256,0,U,3669,999,35909,.44833056E-4,.6E-6,0
SERT 2,1970-009A,2026-06-11T01:26:25.130976,13.58738747,.00040293,99.2842,100.1020,292.6993,82.6951,0,U,4327,999,79257,.32806597E-4,-.17E-6,0
SL-3 R/B,1971-028B,2026-06-11T04:33:08.919648,15.69173002,.00138051,81.2324,295.8448,302.3127,57.6792,0,U,5118,999,330,.39765101E-3,.4657E-3,0
ASTEX 1,1971-089A,2026-06-11T00:04:14.836800,14.50846688,.00175068,92.6998,181.8641,124.4128,235.8736,0,U,5560,999,87583,.10141487E-3,.4E-5,0
SL-8 R/B,1971-119B,2026-06-11T05:59:01.641984,14.39470026,.05438169,73.8879,0.5935,307.7593,47.5454,0,U,5730,999,66894,.16931938E-3,.3269E-4,0
OAO 3 (COPERNICUS),1972-065A,2026-06-11T05:04:09.636960,14.60056906,.00069892,35.0048,124.4550,210.1601,171.7625,0,U,6153,999,85987,.52998785E-4,.238E-5,0
ATLAS CENTAUR R/B,1972-065B,2026-06-11T04:44:52.882656,14.77908650,.00328072,35.0007,117.6538,77.4229,283.0138,0,U,6155,999,85510,.13153244E-3,.946E-5,0
SL-8 R/B,1975-112B,2026-06-11T04:45:02.730528,14.38243282,.001685,74.0596,206.8921,274.5208,85.4021,0,U,8459,999,64531,.63499225E-4,.167E-5,0
SL-3 R/B,1977-057B,2026-06-11T04:54:47.137536,15.47758657,.00056258,97.5837,338.4571,311.7377,48.3391,0,U,10114,999,68278,.17784274E-3,.9123E-4,0
SEASAT 1,1978-064A,2026-06-11T05:19:34.670784,14.46238733,.00019849,108.0166,321.7670,240.7099,119.3848,0,U,10967,999,52003,.99871532E-4,.22E-5,0
SL-14 R/B,1979-011B,2026-06-11T06:34:16.526496,14.92008629,.0017494,82.5241,7.7666,103.5630,256.7540,0,U,11267,999,54273,.41964265E-4,.452E-5,0
SL-8 R/B,1979-089B,2026-06-11T00:46:22.766880,14.42401272,.00148749,74.0695,278.2510,64.4942,295.7751,0,U,11574,999,44956,.63564554E-4,.184E-5,0
SL-14 R/B,1980-005B,2026-06-11T05:08:27.772512,14.91024002,.00149476,82.5144,218.5060,206.3105,153.7357,0,U,11672,999,49042,.36015475E-4,.382E-5,0
SL-8 R/B,1981-003B,2026-06-11T04:54:08.209152,15.14040720,.02504447,82.9373,203.3300,212.0986,146.4793,0,U,12139,999,32881,.33409415E-3,.13563E-3,0
SL-3 R/B,1981-046B,2026-06-11T07:01:06.919680,15.44074287,.0019073,81.2298,177.1694,57.2440,303.0638,0,U,12465,999,45286,.19864735E-3,.9168E-4,0
SL-3 R/B,1981-103B,2026-06-11T06:28:09.653088,15.22233817,.00122224,81.1578,103.5842,337.5911,22.4786,0,U,12904,999,98746,.161514E-3,.3744E-4,0
SL-3 R/B,1982-013B,2026-06-11T05:50:01.318848,15.22748917,.00209814,81.1747,51.0348,221.5623,138.4015,0,U,13068,999,41858,.12980733E-3,.3073E-4,0
SL-3 R/B,1982-039B,2026-06-11T04:55:56.632512,15.10501210,.00295699,81.1428,107.9983,15.8293,344.3850,0,U,13154,999,39575,.16952809E-3,.2844E-4,0
SL-3 R/B,1982-079B,2026-06-11T05:08:02.026176,15.25738309,.00232339,81.1464,82.5515,206.0110,153.9958,0,U,13403,999,39195,.13698694E-3,.3547E-4,0
SL-14 R/B,1982-092B,2026-06-11T03:20:48.429888,14.86743519,.00201863,82.5686,53.9624,355.7619,118.3894,0,U,13553,999,34281,.36036683E-4,.346E-5,0
SL-3 R/B,1983-010B,2026-06-11T05:54:04.140000,15.49082512,.0015813,81.1022,247.2804,82.3677,277.9365,0,U,13819,999,37241,.2309309E-3,.12628E-3,0
SL-3 R/B,1983-075B,2026-06-11T05:20:43.705248,15.40384073,.00189101,97.6104,170.4836,252.2181,107.7002,0,U,14208,999,34454,.20019707E-3,.8047E-4,0
COSMOS 1536,1984-013A,2026-06-10T23:52:11.530560,15.24988666,.00130305,82.5453,15.0135,319.5869,40.4400,0,U,14699,999,28683,.2141383E-3,.5384E-4,0
SL-14 R/B,1984-027B,2026-06-11T02:06:07.397568,14.86055108,.00186953,82.5408,157.4372,28.8159,331.4086,0,U,14820,999,26150,.40856419E-4,.383E-5,0
